{
"type": "FeatureCollection",
"name": "mastermeters",
"crs": { "type": "name", "properties": { "name": "urn:ogc:def:crs:OGC:1.3:CRS84" } },
"features": [
{ "type": "Feature", "properties": { "id": "a48e3eb0-55b7-4cc4-b1c2-111248446204", "name": "Kiamariga lower", "size": "50mm", "route": "kiamariga lower ", "zone": "012 83", "dma": "Kiamariga lower", "cover": "no cover ", "location": "opposite market ", "remarks": null, "userId": null, "longitude": 37.083336660079738, "latitude": -0.38591281789166659, "createdAt": "2024-11-18T10:08:26.676Z", "updatedAt": "2025-01-23T12:26:34.838Z", "ObjectID": 112 }, "geometry": { "type": "Point", "coordinates": [ 37.083336660079738, -0.385912817891667 ] } },
{ "type": "Feature", "properties": { "id": "53378ad1-7234-46f0-86b0-ccbc6aab0c0d", "name": "Behind factory line  ", "size": "1.5", "route": "Behind factory line ", "zone": "012 83", "dma": "factory line", "cover": "covered ", "location": "Near slaughter house ", "remarks": null, "userId": null, "longitude": 37.084786654199618, "latitude": -0.38495376814151216, "createdAt": "2025-01-23T12:30:09.677Z", "updatedAt": "2025-01-23T12:30:09.677Z", "ObjectID": 38 }, "geometry": { "type": "Point", "coordinates": [ 37.084786654199618, -0.384953768141512 ] } },
{ "type": "Feature", "properties": { "id": "e1141283-bf8c-41b5-b375-c40e8a0adf9d", "name": "Kangogoro", "size": "1.5", "route": "Kangogoro", "zone": "012 83", "dma": "Kangogoro", "cover": null, "location": "In the forest", "remarks": null, "userId": null, "longitude": 37.1083433, "latitude": -0.3741, "createdAt": "2024-11-14T08:34:28.806Z", "updatedAt": "2024-11-14T08:34:28.806Z", "ObjectID": 75 }, "geometry": { "type": "Point", "coordinates": [ 37.1083433, -0.3741 ] } },
{ "type": "Feature", "properties": { "id": "6101f5ea-8c47-4e3e-a6fe-fa6cc4085d49", "name": "Kiaihuru", "size": "4", "route": "Kiaihuru", "zone": "012 83", "dma": "Kiaihuru", "cover": null, "location": "Near the tank", "remarks": null, "userId": null, "longitude": 37.105045577797981, "latitude": -0.37368171842192366, "createdAt": "2024-11-14T08:26:52.318Z", "updatedAt": "2024-11-14T08:26:52.318Z", "ObjectID": 44 }, "geometry": { "type": "Point", "coordinates": [ 37.105045577797981, -0.373681718421924 ] } },
{ "type": "Feature", "properties": { "id": "d2039ae3-3bd2-4a53-b40f-20a5481ead52", "name": "Gichoru ", "size": "1", "route": "Gichoru ", "zone": "012 83", "dma": "Gichoru ", "cover": "No cover", "location": "Near gichoru tea buying center ", "remarks": null, "userId": null, "longitude": 37.10074, "latitude": -0.3781933, "createdAt": "2025-01-23T13:03:37.115Z", "updatedAt": "2025-01-23T13:03:37.115Z", "ObjectID": 69 }, "geometry": { "type": "Point", "coordinates": [ 37.10074, -0.3781933 ] } },
{ "type": "Feature", "properties": { "id": "f8bfd029-cb81-4dcf-b511-d896e4c5fed1", "name": "Mutuiini ", "size": "1.5", "route": "Mutiini", "zone": "013 84", "dma": "Mutiini", "cover": "Yes", "location": "Kabiruini junction", "remarks": null, "userId": null, "longitude": 37.08699, "latitude": -0.3937233, "createdAt": "2025-01-23T12:51:35.504Z", "updatedAt": "2025-01-23T12:51:35.504Z", "ObjectID": 85 }, "geometry": { "type": "Point", "coordinates": [ 37.08699, -0.3937233 ] } }
]
}
