{
"type": "FeatureCollection",
"name": "tanks",
"crs": { "type": "name", "properties": { "name": "urn:ogc:def:crs:OGC:1.3:CRS84" } },
"features": [
{ "type": "Feature", "properties": { "id": "f5c0e458-6a28-460b-9b16-c3f7c8fba525", "name": "Kiriko bpt", "zone": "013 84", "elevation": 1847.0, "area": "Kiriko", "location": "Kiriko", "inletPipe": null, "outletPipe": null, "material": "Concrete", "capacity": null, "status": "Inactive", "remarks": null, "userId": null, "latitude": -0.400496, "longitude": 37.097796, "ObjectID": 13 }, "geometry": { "type": "Point", "coordinates": [ 37.097796, -0.400496 ] } },
{ "type": "Feature", "properties": { "id": "02146e57-e1de-4de7-9cdb-401934c9de1c", "name": "Arthur ", "zone": "012 83", "elevation": 1870.0, "area": "Ngorano", "location": "At ngorano next to health centre ", "inletPipe": null, "outletPipe": null, "material": "Concrete", "capacity": null, "status": "Inactive", "remarks": null, "userId": "4666047d-fff9-4956-ad44-7e245493acaf", "latitude": -0.4053603, "longitude": 37.0571535, "ObjectID": 1 }, "geometry": { "type": "Point", "coordinates": [ 37.0571535, -0.4053603 ] } },
{ "type": "Feature", "properties": { "id": "f5c0e458-6a28-460b-9b16-c3f7c8fba522", "name": "Rangi", "zone": "012 83", "elevation": 1875.0, "area": "Rangi", "location": "Kiamariga", "inletPipe": "1.5", "outletPipe": "3", "material": "Concrete", "capacity": null, "status": "Inactive", "remarks": null, "userId": "ecaf0fdd-59e0-452f-b4b8-73e5954fb587", "latitude": -0.38217183390928966, "longitude": 37.087773081317486, "ObjectID": 10 }, "geometry": { "type": "Point", "coordinates": [ 37.087773081317486, -0.38217183390929 ] } },
{ "type": "Feature", "properties": { "id": "f5c0e458-6a28-460b-9b16-c3f7c8fba561", "name": "Kiaguruwe ", "zone": "015 86", "elevation": 1874.0, "area": "Kiawarigi", "location": "near general China itiati juction", "inletPipe": "6", "outletPipe": "6 and 4", "material": "Concrete", "capacity": null, "status": "Inactive", "remarks": null, "userId": null, "latitude": -0.42883232583694003, "longitude": 37.100249429611132, "ObjectID": 48 }, "geometry": { "type": "Point", "coordinates": [ 37.100249429611132, -0.42883232583694 ] } },
{ "type": "Feature", "properties": { "id": "f5c0e458-6a28-460b-9b16-c3f7c8fba568", "name": "Behind njatheini primary", "zone": "013 84", "elevation": 1914.0, "area": "Njatheini", "location": "behind primary School", "inletPipe": "2", "outletPipe": "2", "material": "Concrete", "capacity": null, "status": "Active", "remarks": null, "userId": null, "latitude": -0.3915539, "longitude": 37.1079796, "ObjectID": 55 }, "geometry": { "type": "Point", "coordinates": [ 37.1079796, -0.3915539 ] } },
{ "type": "Feature", "properties": { "id": "f5c0e458-6a28-460b-9b16-c3f7c8fba523", "name": "Iruri ", "zone": "012 83", "elevation": 1952.0, "area": "Iruri", "location": "Iruri", "inletPipe": "1.5", "outletPipe": null, "material": "Concrete", "capacity": null, "status": "Active", "remarks": null, "userId": "ecaf0fdd-59e0-452f-b4b8-73e5954fb587", "latitude": -0.360914, "longitude": 37.099212, "ObjectID": 11 }, "geometry": { "type": "Point", "coordinates": [ 37.099212, -0.360914 ] } },
{ "type": "Feature", "properties": { "id": "f5c0e458-6a28-460b-9b16-c3f7c8fba531", "name": "Ndunduini", "zone": "012 83", "elevation": 1852.0, "area": "Ndunduini", "location": "Ndunduini Primary", "inletPipe": "3", "outletPipe": null, "material": "Concrete", "capacity": null, "status": "Inactive", "remarks": null, "userId": null, "latitude": -0.373462, "longitude": 37.080359, "ObjectID": 19 }, "geometry": { "type": "Point", "coordinates": [ 37.080359, -0.373462 ] } },
{ "type": "Feature", "properties": { "id": "f5c0e458-6a28-460b-9b16-c3f7c8fba533", "name": "Kiaihuru", "zone": "012 83", "elevation": 1991.0, "area": "Kiaihuru", "location": "Junction of Nyana road", "inletPipe": "4", "outletPipe": null, "material": "Concrete", "capacity": null, "status": "Inactive", "remarks": null, "userId": null, "latitude": -0.366185, "longitude": 37.100989, "ObjectID": 21 }, "geometry": { "type": "Point", "coordinates": [ 37.100989, -0.366185 ] } },
{ "type": "Feature", "properties": { "id": "f5c0e458-6a28-460b-9b16-c3f7c8fba534", "name": "Kianjau bpt", "zone": "012 83", "elevation": 1895.0, "area": "Kianjau", "location": "Behind kianjau Primary", "inletPipe": null, "outletPipe": null, "material": "Concrete", "capacity": null, "status": "Inactive", "remarks": null, "userId": null, "latitude": -0.383962, "longitude": 37.095833, "ObjectID": 22 }, "geometry": { "type": "Point", "coordinates": [ 37.095833, -0.383962 ] } },
{ "type": "Feature", "properties": { "id": "f5c0e458-6a28-460b-9b16-c3f7c8fba576", "name": "Njatheini ", "zone": "013 84", "elevation": 1929.0, "area": "Njatheini", "location": "njatheini", "inletPipe": "6", "outletPipe": "4", "material": "Concrete", "capacity": null, "status": "Active", "remarks": null, "userId": null, "latitude": -0.3863283, "longitude": 37.1107233, "ObjectID": 63 }, "geometry": { "type": "Point", "coordinates": [ 37.1107233, -0.3863283 ] } },
{ "type": "Feature", "properties": { "id": "f5c0e458-6a28-460b-9b16-c3f7c8fba587", "name": "201", "zone": "019 89", "elevation": 2068.0, "area": "Ragati forest", "location": "Ragati forest", "inletPipe": null, "outletPipe": null, "material": "Concrete", "capacity": null, "status": "Active", "remarks": null, "userId": null, "latitude": -0.368438743, "longitude": 37.15620989, "ObjectID": 73 }, "geometry": { "type": "Point", "coordinates": [ 37.15620989, -0.368438743 ] } },
{ "type": "Feature", "properties": { "id": "f5c0e458-6a28-460b-9b16-c3f7c8fba524", "name": "Kianjau bpt ", "zone": "012 83", "elevation": 1894.0, "area": "Kianjau", "location": "Kianjau", "inletPipe": "", "outletPipe": "", "material": "Concrete", "capacity": "", "status": "Inactive", "remarks": "reviewed", "userId": "33800886-f0bf-4e37-8dad-86f52baad206", "latitude": -0.383962, "longitude": 37.095833, "ObjectID": 12 }, "geometry": { "type": "Point", "coordinates": [ 37.095833, -0.383962 ] } },
{ "type": "Feature", "properties": { "id": "9d2af3d8-2318-4f6f-8592-4626a0c4bd33", "name": "Gikiriri ", "zone": "012 83", "elevation": 2073.0, "area": "Nyana forest", "location": "inside gikiriri forest ", "inletPipe": null, "outletPipe": null, "material": "Concrete", "capacity": null, "status": "Active", "remarks": null, "userId": "4666047d-fff9-4956-ad44-7e245493acaf", "latitude": -0.3656996, "longitude": 37.1043747, "ObjectID": 6 }, "geometry": { "type": "Point", "coordinates": [ 37.1043747, -0.3656996 ] } },
{ "type": "Feature", "properties": { "id": "f5c0e458-6a28-460b-9b16-c3f7c8fba578", "name": "Nyana ", "zone": "012 83", "elevation": 2030.0, "area": "Nyana", "location": "nyana", "inletPipe": "8'' and 6''", "outletPipe": "2'',4'' and  3''", "material": "Concrete", "capacity": null, "status": "Active", "remarks": null, "userId": null, "latitude": -0.37368618421432132, "longitude": 37.10505001926235, "ObjectID": 65 }, "geometry": { "type": "Point", "coordinates": [ 37.10505001926235, -0.373686184214321 ] } }
]
}
