{
"type": "FeatureCollection",
"name": "valves",
"crs": { "type": "name", "properties": { "name": "urn:ogc:def:crs:OGC:1.3:CRS84" } },
"features": [
{ "type": "Feature", "properties": { "id": "3af64b10-79a5-4ac9-8292-9a143ed126eb", "type": "Gate Valve", "dma": "N/A", "status": "Active", "size": "63mm", "schemeName": "Rural", "zone": "013 84", "route": "Githambiro", "location": "Githambiro junction ", "remarks": "okay", "userId": "8c3e9951-959f-406d-89ae-d84038442f0e", "longitude": 37.0973837, "latitude": -0.3785989, "createdAt": "2025-10-03T10:30:34.865Z", "updatedAt": "2025-10-03T10:30:34.865Z", "ObjectID": 476 }, "geometry": { "type": "Point", "coordinates": [ 37.09740666322314, -0.378561651631374 ] } },
{ "type": "Feature", "properties": { "id": "29f12d1d-d326-4c35-97b0-0ac85f7c5b35", "type": "Air Valve", "dma": "", "status": "", "size": "1inch", "schemeName": "Rural", "zone": "012 83", "route": "ngorano", "location": "ngorano", "remarks": "installation of airvalves ngorano line", "userId": "a13017de-550d-41cc-84c7-20c7be0e863f", "longitude": 37.062245, "latitude": -0.406587, "createdAt": "2025-10-09T08:37:51.398Z", "updatedAt": "2025-10-09T08:37:51.398Z", "ObjectID": 477 }, "geometry": { "type": "Point", "coordinates": [ 37.062245, -0.406587 ] } },
{ "type": "Feature", "properties": { "id": "18826078-95a5-4adb-964f-3bacc3e26807", "type": "", "dma": "", "status": "", "size": "one inch", "schemeName": "", "zone": "012 83", "route": "ngorano line", "location": "ngorano", "remarks": "", "userId": "a13017de-550d-41cc-84c7-20c7be0e863f", "longitude": 37.0616684, "latitude": -0.4060637, "createdAt": "2025-10-09T08:44:57.605Z", "updatedAt": "2025-10-09T08:44:57.605Z", "ObjectID": 478 }, "geometry": { "type": "Point", "coordinates": [ 37.0616684, -0.4060637 ] } },
{ "type": "Feature", "properties": { "id": "20ec7317-8894-4bb0-b638-1d4f2823425e", "type": "", "dma": "", "status": "Active", "size": "1inch", "schemeName": "Rural", "zone": "", "route": "ngorano line", "location": "ngorano", "remarks": "installation of airvalves at ngorano line", "userId": "a13017de-550d-41cc-84c7-20c7be0e863f", "longitude": 37.0685267, "latitude": -0.3966758, "createdAt": "2025-10-09T08:56:59.113Z", "updatedAt": "2025-10-09T08:56:59.113Z", "ObjectID": 479 }, "geometry": { "type": "Point", "coordinates": [ 37.0685267, -0.3966758 ] } },
{ "type": "Feature", "properties": { "id": "f5c0e458-6a28-460b-9b16-c3f7c8fba839", "type": "Gate Valve", "dma": "N/A", "status": "Active", "size": "1", "schemeName": "Rural", "zone": "013 84", "route": "Maria first lane", "location": "maria", "remarks": "NULL", "userId": "NULL", "longitude": 37.0864863, "latitude": -0.3936054, "createdAt": "2023-07-13T13:10:38.576Z", "updatedAt": "2023-07-13T13:10:38.576Z", "ObjectID": 319 }, "geometry": { "type": "Point", "coordinates": [ 37.0864863, -0.3936054 ] } },
{ "type": "Feature", "properties": { "id": "f5c0e458-6a28-460b-9b16-c3f7c8fba841", "type": "Air Valve", "dma": "N/A", "status": "Inactive", "size": "2", "schemeName": "Rural", "zone": "013 84", "route": "along ngorano road", "location": "maria", "remarks": "NULL", "userId": "NULL", "longitude": 37.0837776, "latitude": -0.3962101, "createdAt": "2023-07-13T13:10:38.576Z", "updatedAt": "2023-07-13T13:10:38.576Z", "ObjectID": 321 }, "geometry": { "type": "Point", "coordinates": [ 37.0837776, -0.3962101 ] } },
{ "type": "Feature", "properties": { "id": "f5c0e458-6a28-460b-9b16-c3f7c8fba843", "type": "Sluice Valve", "dma": "N/A", "status": "Active", "size": "NULL", "schemeName": "Rural", "zone": "013 84", "route": "behind njatheini primary", "location": "njatheini", "remarks": "NULL", "userId": "NULL", "longitude": 37.1080291, "latitude": -0.3915588, "createdAt": "2023-07-13T13:10:38.576Z", "updatedAt": "2023-07-13T13:10:38.576Z", "ObjectID": 323 }, "geometry": { "type": "Point", "coordinates": [ 37.1080291, -0.3915588 ] } },
{ "type": "Feature", "properties": { "id": "f5c0e458-6a28-460b-9b16-c3f7c8fba844", "type": "Sluice Valve", "dma": "N/A", "status": "Active", "size": "NULL", "schemeName": "Rural", "zone": "013 84", "route": "behind njatheini primary", "location": "njatheini", "remarks": "NULL", "userId": "NULL", "longitude": 37.1079616, "latitude": -0.3915735, "createdAt": "2023-07-13T13:10:38.576Z", "updatedAt": "2023-07-13T13:10:38.576Z", "ObjectID": 324 }, "geometry": { "type": "Point", "coordinates": [ 37.1079616, -0.3915735 ] } },
{ "type": "Feature", "properties": { "id": "f5c0e458-6a28-460b-9b16-c3f7c8fba560", "type": "Sluice Valve", "dma": "N/A", "status": "Active", "size": "3", "schemeName": "Rural", "zone": "012 83", "route": "kiaihuru", "location": "kiaihuru", "remarks": "active", "userId": "NULL", "longitude": 37.09101, "latitude": -0.3705263, "createdAt": "2023-07-13T13:10:38.576Z", "updatedAt": "2023-07-13T13:10:38.576Z", "ObjectID": 39 }, "geometry": { "type": "Point", "coordinates": [ 37.09101, -0.3705263 ] } },
{ "type": "Feature", "properties": { "id": "f5c0e458-6a28-460b-9b16-c3f7c8fba826", "type": "Sluice Valve", "dma": "N/A", "status": "Active", "size": "4", "schemeName": "Rural", "zone": "012 83", "route": "kiaihuru line", "location": "nyana tank", "remarks": "NULL", "userId": "NULL", "longitude": 37.105049304631294, "latitude": -0.3736836620408131, "createdAt": "2023-07-13T13:10:38.576Z", "updatedAt": "2023-07-13T13:10:38.576Z", "ObjectID": 306 }, "geometry": { "type": "Point", "coordinates": [ 37.105049304631294, -0.373683662040813 ] } },
{ "type": "Feature", "properties": { "id": "f5c0e458-6a28-460b-9b16-c3f7c8fba912", "type": "Gate Valve", "dma": "N/A", "status": "Active", "size": "90mm", "schemeName": "Rural", "zone": "012 83", "route": "kiamariga shopping center", "location": "after slaughter house", "remarks": "NULL", "userId": "NULL", "longitude": 37.0840617, "latitude": -0.3835866, "createdAt": "2023-07-13T13:10:38.576Z", "updatedAt": "2023-07-13T13:10:38.576Z", "ObjectID": 392 }, "geometry": { "type": "Point", "coordinates": [ 37.0840617, -0.3835866 ] } },
{ "type": "Feature", "properties": { "id": "8a41ecd3-6d1d-4b08-820c-52c5978bb382", "type": "Gate Valve", "dma": " ", "status": "Active", "size": "100mm", "schemeName": "Rural", "zone": "012 83", "route": "nyana\n", "location": "nyana 110mm pipe", "remarks": "proposed sluice valve at nyana 110mm line", "userId": "NULL", "longitude": 37.0998417, "latitude": -0.375785, "createdAt": "2023-09-26T13:35:36.755Z", "updatedAt": "2023-09-26T13:35:36.755Z", "ObjectID": 4 }, "geometry": { "type": "Point", "coordinates": [ 37.0998417, -0.375785 ] } },
{ "type": "Feature", "properties": { "id": "41f05e98-635a-4a26-b551-f315a858cd81", "type": "Air Valve", "dma": "N/A", "status": "Active", "size": "20mm", "schemeName": "Rural", "zone": "012 83", "route": "Kiaihuru", "location": "Kiaihuru", "remarks": "new", "userId": "168cf595-aa2d-4640-b148-af8b90c6857c", "longitude": 37.0994264, "latitude": -0.3668702, "createdAt": "2025-09-11T10:35:05.842Z", "updatedAt": "2025-09-11T10:35:05.842Z", "ObjectID": 473 }, "geometry": { "type": "Point", "coordinates": [ 37.0994264, -0.3668702 ] } },
{ "type": "Feature", "properties": { "id": "e46fb090-679d-4347-a3d9-c7998f01a72e", "type": "Air Valve", "dma": "N/A", "status": "Active", "size": "20mm", "schemeName": "Rural", "zone": "012 83", "route": "Kiaihuru", "location": "Kiaihuru", "remarks": "new", "userId": "168cf595-aa2d-4640-b148-af8b90c6857c", "longitude": 37.1012904, "latitude": -0.3666609, "createdAt": "2025-09-11T10:40:26.533Z", "updatedAt": "2025-09-11T10:40:26.533Z", "ObjectID": 474 }, "geometry": { "type": "Point", "coordinates": [ 37.1012904, -0.3666609 ] } },
{ "type": "Feature", "properties": { "id": "f5c0e458-6a28-460b-9b16-c3f7c8fba804", "type": "Sluice Valve", "dma": "NULL", "status": "Active", "size": "6", "schemeName": "Rural", "zone": "012 83", "route": "kiamariga lower", "location": "kiamariga", "remarks": "NULL", "userId": "NULL", "longitude": 37.0833642, "latitude": -0.3859682, "createdAt": "2023-07-13T13:10:38.576Z", "updatedAt": "2023-07-13T13:10:38.576Z", "ObjectID": 284 }, "geometry": { "type": "Point", "coordinates": [ 37.0833642, -0.3859682 ] } },
{ "type": "Feature", "properties": { "id": "f5c0e458-6a28-460b-9b16-c3f7c8fba807", "type": "Air Valve", "dma": "N/A", "status": "Active", "size": "6", "schemeName": "Rural", "zone": "012 83", "route": "kiamariga", "location": "kiamariga upper", "remarks": "NULL", "userId": "NULL", "longitude": 37.0847978, "latitude": -0.3850119, "createdAt": "2023-07-13T13:10:38.576Z", "updatedAt": "2023-07-13T13:10:38.576Z", "ObjectID": 287 }, "geometry": { "type": "Point", "coordinates": [ 37.0847978, -0.3850119 ] } },
{ "type": "Feature", "properties": { "id": "f5c0e458-6a28-460b-9b16-c3f7c8fba811", "type": "Sluice Valve", "dma": "N/A", "status": "Active", "size": "6", "schemeName": "Rural", "zone": "012 83", "route": "kiamariga", "location": "rangi", "remarks": "NULL", "userId": "NULL", "longitude": 37.0878285, "latitude": -0.3821807, "createdAt": "2023-07-13T13:10:38.576Z", "updatedAt": "2023-07-13T13:10:38.576Z", "ObjectID": 291 }, "geometry": { "type": "Point", "coordinates": [ 37.0878285, -0.3821807 ] } },
{ "type": "Feature", "properties": { "id": "f5c0e458-6a28-460b-9b16-c3f7c8fba812", "type": "Sluice Valve", "dma": "N/A", "status": "Active", "size": "6", "schemeName": "Rural", "zone": "012 83", "route": "kiamariga", "location": "rangi tank", "remarks": "NULL", "userId": "NULL", "longitude": 37.0877994, "latitude": -0.3822307, "createdAt": "2023-07-13T13:10:38.576Z", "updatedAt": "2023-07-13T13:10:38.576Z", "ObjectID": 292 }, "geometry": { "type": "Point", "coordinates": [ 37.0877994, -0.3822307 ] } },
{ "type": "Feature", "properties": { "id": "f5c0e458-6a28-460b-9b16-c3f7c8fba815", "type": "Gate Valve", "dma": "N/A", "status": "Active", "size": "6", "schemeName": "Rural", "zone": "012 83", "route": "kiamariga Line", "location": "rangi tank", "remarks": "NULL", "userId": "NULL", "longitude": 37.0877886, "latitude": -0.3822167, "createdAt": "2023-07-13T13:10:38.576Z", "updatedAt": "2023-07-13T13:10:38.576Z", "ObjectID": 295 }, "geometry": { "type": "Point", "coordinates": [ 37.0877886, -0.3822167 ] } },
{ "type": "Feature", "properties": { "id": "f5c0e458-6a28-460b-9b16-c3f7c8fba830", "type": "Sluice Valve", "dma": "N/A", "status": "Active", "size": "4", "schemeName": "Rural", "zone": "012 83", "route": "kabiruini line", "location": "nyana tank", "remarks": "NULL", "userId": "NULL", "longitude": 37.105048575987894, "latitude": -0.37369122856133402, "createdAt": "2023-07-13T13:10:38.576Z", "updatedAt": "2023-07-13T13:10:38.576Z", "ObjectID": 310 }, "geometry": { "type": "Point", "coordinates": [ 37.105048575987894, -0.373691228561334 ] } },
{ "type": "Feature", "properties": { "id": "f5c0e458-6a28-460b-9b16-c3f7c8fba821", "type": "Gate Valve", "dma": "N/A", "status": "Inactive", "size": "6", "schemeName": "Rural", "zone": "012 83", "route": "githambiro line", "location": "rangi kwa mwati", "remarks": "NULL", "userId": "NULL", "longitude": 37.0973785, "latitude": -0.3785806, "createdAt": "2023-07-13T13:10:38.576Z", "updatedAt": "2023-07-13T13:10:38.576Z", "ObjectID": 301 }, "geometry": { "type": "Point", "coordinates": [ 37.097435594607084, -0.37861092114335 ] } },
{ "type": "Feature", "properties": { "id": "f5c0e458-6a28-460b-9b16-c3f7c8fba823", "type": "Sluice Valve", "dma": "N/A", "status": "Active", "size": "6", "schemeName": "Rural", "zone": "012 83", "route": "kiamariga line", "location": "rangi", "remarks": "NULL", "userId": "NULL", "longitude": 37.097467, "latitude": -0.3787155, "createdAt": "2023-07-13T13:10:38.576Z", "updatedAt": "2023-07-13T13:10:38.576Z", "ObjectID": 303 }, "geometry": { "type": "Point", "coordinates": [ 37.09752542700766, -0.378707396878949 ] } },
{ "type": "Feature", "properties": { "id": "f5c0e458-6a28-460b-9b16-c3f7c8fba832", "type": "Sluice Valve", "dma": "N/A", "status": "Active", "size": "3", "schemeName": "Rural", "zone": "012 83", "route": "kiamariga line", "location": "nyana tank", "remarks": "NULL", "userId": "NULL", "longitude": 37.105045395179197, "latitude": -0.37369418510916547, "createdAt": "2023-07-13T13:10:38.576Z", "updatedAt": "2023-07-13T13:10:38.576Z", "ObjectID": 312 }, "geometry": { "type": "Point", "coordinates": [ 37.105045395179197, -0.373694185109165 ] } },
{ "type": "Feature", "properties": { "id": "f5c0e458-6a28-460b-9b16-c3f7c8fba833", "type": "Sluice Valve", "dma": "N/A", "status": "Active", "size": "4", "schemeName": "Rural", "zone": "012 83", "route": "nyana kabiruini line", "location": "nyana", "remarks": "NULL", "userId": "NULL", "longitude": 37.1016797, "latitude": -0.3771301, "createdAt": "2023-07-13T13:10:38.576Z", "updatedAt": "2023-07-13T13:10:38.576Z", "ObjectID": 313 }, "geometry": { "type": "Point", "coordinates": [ 37.1016797, -0.3771301 ] } },
{ "type": "Feature", "properties": { "id": "f5c0e458-6a28-460b-9b16-c3f7c8fba835", "type": "Gate Valve", "dma": "NULL", "status": "Active", "size": "1", "schemeName": "Rural", "zone": "012 83", "route": "gichoru", "location": "nyana tea buying center", "remarks": "NULL", "userId": "NULL", "longitude": 37.100787, "latitude": -0.3780879, "createdAt": "2023-07-13T13:10:38.576Z", "updatedAt": "2023-07-13T13:10:38.576Z", "ObjectID": 315 }, "geometry": { "type": "Point", "coordinates": [ 37.100787, -0.3780879 ] } },
{ "type": "Feature", "properties": { "id": "f5c0e458-6a28-460b-9b16-c3f7c8fba836", "type": "Gate Valve", "dma": "N/A", "status": "Active", "size": "2", "schemeName": "Rural", "zone": "012 83", "route": "kianjau", "location": "kianjau", "remarks": "NULL", "userId": "NULL", "longitude": 37.0999807, "latitude": -0.3825715, "createdAt": "2023-07-13T13:10:38.576Z", "updatedAt": "2023-07-13T13:10:38.576Z", "ObjectID": 316 }, "geometry": { "type": "Point", "coordinates": [ 37.0999807, -0.3825715 ] } },
{ "type": "Feature", "properties": { "id": "f5c0e458-6a28-460b-9b16-c3f7c8fba837", "type": "Sluice Valve", "dma": "N/A", "status": "Active", "size": "4", "schemeName": "Rural", "zone": "013 84", "route": "along kiamariga road", "location": "kwa L", "remarks": "NULL", "userId": "NULL", "longitude": 37.0918561, "latitude": -0.389424, "createdAt": "2023-07-13T13:10:38.576Z", "updatedAt": "2023-07-13T13:10:38.576Z", "ObjectID": 317 }, "geometry": { "type": "Point", "coordinates": [ 37.0918561, -0.389424 ] } },
{ "type": "Feature", "properties": { "id": "f5c0e458-6a28-460b-9b16-c3f7c8fba838", "type": "Gate Valve", "dma": "N/A", "status": "Active", "size": "2", "schemeName": "Rural", "zone": "013 84", "route": "along kiamariga road", "location": "kwa L", "remarks": "NULL", "userId": "NULL", "longitude": 37.0922981, "latitude": -0.3897636, "createdAt": "2023-07-13T13:10:38.576Z", "updatedAt": "2023-07-13T13:10:38.576Z", "ObjectID": 318 }, "geometry": { "type": "Point", "coordinates": [ 37.0922981, -0.3897636 ] } },
{ "type": "Feature", "properties": { "id": "f5c0e458-6a28-460b-9b16-c3f7c8fba845", "type": "Sluice Valve", "dma": "N/A", "status": "Active", "size": "2", "schemeName": "Rural", "zone": "013 84", "route": "behind njatheini primary", "location": "njatheini shopping center", "remarks": "NULL", "userId": "NULL", "longitude": 37.1079789, "latitude": -0.3883877, "createdAt": "2023-07-13T13:10:38.576Z", "updatedAt": "2023-07-13T13:10:38.576Z", "ObjectID": 325 }, "geometry": { "type": "Point", "coordinates": [ 37.1079789, -0.3883877 ] } },
{ "type": "Feature", "properties": { "id": "f5c0e458-6a28-460b-9b16-c3f7c8fba846", "type": "Sluice Valve", "dma": "N/A", "status": "Active", "size": "2", "schemeName": "Rural", "zone": "013 84", "route": "behind njatheini primary", "location": "njatheini shopping center", "remarks": "NULL", "userId": "NULL", "longitude": 37.1079851, "latitude": -0.388185, "createdAt": "2023-07-13T13:10:38.576Z", "updatedAt": "2023-07-13T13:10:38.576Z", "ObjectID": 326 }, "geometry": { "type": "Point", "coordinates": [ 37.1079851, -0.388185 ] } },
{ "type": "Feature", "properties": { "id": "f5c0e458-6a28-460b-9b16-c3f7c8fba851", "type": "Gate Valve", "dma": "N/A", "status": "Active", "size": "2", "schemeName": "Rural", "zone": "013 84", "route": "njatheini", "location": "njatheini tank", "remarks": "NULL", "userId": "NULL", "longitude": 37.1107724, "latitude": -0.3862872, "createdAt": "2023-07-13T13:10:38.576Z", "updatedAt": "2023-07-13T13:10:38.576Z", "ObjectID": 331 }, "geometry": { "type": "Point", "coordinates": [ 37.1107724, -0.3862872 ] } },
{ "type": "Feature", "properties": { "id": "f5c0e458-6a28-460b-9b16-c3f7c8fba852", "type": "Sluice Valve", "dma": "N/A", "status": "Active", "size": "4", "schemeName": "Rural", "zone": "013 84", "route": "njatheini", "location": "jatheini tank", "remarks": "NULL", "userId": "NULL", "longitude": 37.1107832, "latitude": -0.3862763, "createdAt": "2023-07-13T13:10:38.576Z", "updatedAt": "2023-07-13T13:10:38.576Z", "ObjectID": 332 }, "geometry": { "type": "Point", "coordinates": [ 37.1107832, -0.3862763 ] } },
{ "type": "Feature", "properties": { "id": "f5c0e458-6a28-460b-9b16-c3f7c8fba853", "type": "Sluice Valve", "dma": "N/A", "status": "Active", "size": "4", "schemeName": "Rural", "zone": "013 84", "route": "njatheinii", "location": "njatheini tank", "remarks": "NULL", "userId": "NULL", "longitude": 37.1107369, "latitude": -0.386328, "createdAt": "2023-07-13T13:10:38.576Z", "updatedAt": "2023-07-13T13:10:38.576Z", "ObjectID": 333 }, "geometry": { "type": "Point", "coordinates": [ 37.1107369, -0.386328 ] } },
{ "type": "Feature", "properties": { "id": "f5c0e458-6a28-460b-9b16-c3f7c8fba857", "type": "Gate Valve", "dma": "N/A", "status": "Active", "size": "1", "schemeName": "Rural", "zone": "013 84", "route": "kiandaka", "location": "kiandaka-njatheini junction", "remarks": "NULL", "userId": "NULL", "longitude": 37.0982464, "latitude": -0.3915735, "createdAt": "2023-07-13T13:10:38.576Z", "updatedAt": "2023-07-13T13:10:38.576Z", "ObjectID": 337 }, "geometry": { "type": "Point", "coordinates": [ 37.0982464, -0.3915735 ] } },
{ "type": "Feature", "properties": { "id": "f5c0e458-6a28-460b-9b16-c3f7c8fba860", "type": "Gate Valve", "dma": "N/A", "status": "Active", "size": "NULL", "schemeName": "Rural", "zone": "013 84", "route": "njatheini junction", "location": "njatheini junction", "remarks": "NULL", "userId": "NULL", "longitude": 37.0970964, "latitude": -0.3931702, "createdAt": "2023-07-13T13:10:38.576Z", "updatedAt": "2023-07-13T13:10:38.576Z", "ObjectID": 340 }, "geometry": { "type": "Point", "coordinates": [ 37.0970964, -0.3931702 ] } },
{ "type": "Feature", "properties": { "id": "f5c0e458-6a28-460b-9b16-c3f7c8fba861", "type": "Gate Valve", "dma": "N/A", "status": "Active", "size": "4", "schemeName": "Rural", "zone": "013 84", "route": "kabiruini shopping center", "location": "kabiruini", "remarks": "NULL", "userId": "NULL", "longitude": 37.0889886, "latitude": -0.3933126, "createdAt": "2023-07-13T13:10:38.576Z", "updatedAt": "2023-07-13T13:10:38.576Z", "ObjectID": 341 }, "geometry": { "type": "Point", "coordinates": [ 37.0889886, -0.3933126 ] } },
{ "type": "Feature", "properties": { "id": "f5c0e458-6a28-460b-9b16-c3f7c8fba862", "type": "Gate Valve", "dma": "N/A", "status": "Active", "size": "2", "schemeName": "Rural", "zone": "013 84", "route": "kabiruini shopping center", "location": "kabiruini", "remarks": "NULL", "userId": "NULL", "longitude": 37.0889569, "latitude": -0.3933335, "createdAt": "2023-07-13T13:10:38.576Z", "updatedAt": "2023-07-13T13:10:38.576Z", "ObjectID": 342 }, "geometry": { "type": "Point", "coordinates": [ 37.0889569, -0.3933335 ] } },
{ "type": "Feature", "properties": { "id": "f5c0e458-6a28-460b-9b16-c3f7c8fba864", "type": "Gate Valve", "dma": "N/A", "status": "Active", "size": "4", "schemeName": "Rural", "zone": "013 84", "route": "along kabiruini-ngorano road", "location": "Maria", "remarks": "NULL", "userId": "NULL", "longitude": 37.0832679, "latitude": -0.396804, "createdAt": "2023-07-13T13:10:38.576Z", "updatedAt": "2023-07-13T13:10:38.576Z", "ObjectID": 344 }, "geometry": { "type": "Point", "coordinates": [ 37.0832679, -0.396804 ] } },
{ "type": "Feature", "properties": { "id": "f5c0e458-6a28-460b-9b16-c3f7c8fba866", "type": "Gate Valve", "dma": "N/A", "status": "Active", "size": "1.5", "schemeName": "Rural", "zone": "012 83", "route": "along ngorano health center road", "location": "kwa wanyiri", "remarks": "NULL", "userId": "NULL", "longitude": 37.0652135, "latitude": -0.4022926, "createdAt": "2023-07-13T13:10:38.576Z", "updatedAt": "2023-07-13T13:10:38.576Z", "ObjectID": 346 }, "geometry": { "type": "Point", "coordinates": [ 37.0652135, -0.4022926 ] } },
{ "type": "Feature", "properties": { "id": "f5c0e458-6a28-460b-9b16-c3f7c8fba867", "type": "Gate Valve", "dma": "N/A", "status": "Active", "size": "1.5", "schemeName": "Rural", "zone": "012 83", "route": "along hiriga road", "location": "kiamariga-hiriga junction", "remarks": "NULL", "userId": "NULL", "longitude": 37.0687734, "latitude": -0.3960023, "createdAt": "2023-07-13T13:10:38.576Z", "updatedAt": "2023-07-13T13:10:38.576Z", "ObjectID": 347 }, "geometry": { "type": "Point", "coordinates": [ 37.0687734, -0.3960023 ] } },
{ "type": "Feature", "properties": { "id": "f5c0e458-6a28-460b-9b16-c3f7c8fba854", "type": "Sluice Valve", "dma": "N/A", "status": "Active", "size": "4", "schemeName": "Rural", "zone": "013 84", "route": "njatheini tank", "location": "njatheini tank", "remarks": "NULL", "userId": "NULL", "longitude": 37.1106092, "latitude": -0.3862855, "createdAt": "2023-07-13T13:10:38.576Z", "updatedAt": "2023-07-13T13:10:38.576Z", "ObjectID": 334 }, "geometry": { "type": "Point", "coordinates": [ 37.1106092, -0.3862855 ] } },
{ "type": "Feature", "properties": { "id": "f5c0e458-6a28-460b-9b16-c3f7c8fba868", "type": "Gate Valve", "dma": "N/A", "status": "Active", "size": "3", "schemeName": "Rural", "zone": "012 83", "route": "kiamariga-hiriga road", "location": "kagaati", "remarks": "NULL", "userId": "NULL", "longitude": 37.0717088, "latitude": -0.3905795, "createdAt": "2023-07-13T13:10:38.576Z", "updatedAt": "2023-07-13T13:10:38.576Z", "ObjectID": 348 }, "geometry": { "type": "Point", "coordinates": [ 37.0717088, -0.3905795 ] } },
{ "type": "Feature", "properties": { "id": "f5c0e458-6a28-460b-9b16-c3f7c8fba879", "type": "Gate Valve", "dma": "kiamariga coffee factory", "status": "Active", "size": "NULL", "schemeName": "Rural", "zone": "012 83", "route": "kiamariga shopping center", "location": "behind tamutamu butchery", "remarks": "NULL", "userId": "NULL", "longitude": 37.0851736, "latitude": -0.3862666, "createdAt": "2023-07-13T13:10:38.576Z", "updatedAt": "2023-07-13T13:10:38.576Z", "ObjectID": 359 }, "geometry": { "type": "Point", "coordinates": [ 37.0851736, -0.3862666 ] } },
{ "type": "Feature", "properties": { "id": "f5c0e458-6a28-460b-9b16-c3f7c8fba859", "type": "Gate Valve", "dma": "N/A", "status": "Active", "size": "NULL", "schemeName": "Rural", "zone": "013 84", "route": "njatheini junction", "location": "njatheini Junction", "remarks": "NULL", "userId": "NULL", "longitude": 37.0971045, "latitude": -0.3931607, "createdAt": "2023-07-13T13:10:38.576Z", "updatedAt": "2023-07-13T13:10:38.576Z", "ObjectID": 339 }, "geometry": { "type": "Point", "coordinates": [ 37.0971045, -0.3931607 ] } },
{ "type": "Feature", "properties": { "id": "f5c0e458-6a28-460b-9b16-c3f7c8fba881", "type": "Gate Valve", "dma": "kiamariga coffee factory", "status": "Active", "size": "2", "schemeName": "Rural", "zone": "012 83", "route": "kiamariga shopping center", "location": "behind tamutamu butchery", "remarks": "NULL", "userId": "NULL", "longitude": 37.0849639, "latitude": -0.3860758, "createdAt": "2023-07-13T13:10:38.576Z", "updatedAt": "2023-07-13T13:10:38.576Z", "ObjectID": 361 }, "geometry": { "type": "Point", "coordinates": [ 37.0849639, -0.3860758 ] } }
]
}
