{
"type": "FeatureCollection",
"name": "zones",
"crs": { "type": "name", "properties": { "name": "urn:ogc:def:crs:OGC:1.3:CRS84" } },
"features": [
{ "type": "Feature", "properties": { "Name": "Zone 84", "Area(Km2)": 9.153, "Zone": "013 84", "Scheme Nam": "Rural" }, "geometry": { "type": "MultiPolygon", "coordinates": [ [ [ [ 37.120111054000063, -0.385065134999942 ], [ 37.109481076000066, -0.399032961999985 ], [ 37.104286530000024, -0.400533804999958 ], [ 37.101883, -0.403058 ], [ 37.100954, -0.405773 ], [ 37.095942656878812, -0.407189091866335 ], [ 37.082333886133746, -0.410046109199143 ], [ 37.078048251147727, -0.407283072715801 ], [ 37.074505083626399, -0.404463646756472 ], [ 37.074331387426085, -0.400714700038937 ], [ 37.072789253780535, -0.398419431357183 ], [ 37.07282511735368, -0.396231753394894 ], [ 37.072932708073139, -0.394223393298362 ], [ 37.073112025938904, -0.392788850372261 ], [ 37.073147889512057, -0.392681259652799 ], [ 37.077666699729257, -0.391461898165628 ], [ 37.08146823848341, -0.389848037373762 ], [ 37.090792767503032, -0.389023175191253 ], [ 37.090756903929879, -0.389023175191257 ], [ 37.092227310429131, -0.38683549722897 ], [ 37.103488472398986, -0.38414572924254 ], [ 37.106637742416439, -0.383457596932673 ], [ 37.113081978217245, -0.384576092120359 ], [ 37.120111054000063, -0.385065134999942 ] ] ] ] } },
{ "type": "Feature", "properties": { "Name": "Zone 83", "Area(Km2)": 17.439, "Zone": "012 83", "Scheme Nam": "Rural" }, "geometry": { "type": "MultiPolygon", "coordinates": [ [ [ [ 37.106637742416439, -0.383457596932673 ], [ 37.092227310429131, -0.38683549722897 ], [ 37.090792767503032, -0.389023175191253 ], [ 37.08146823848341, -0.389848037373762 ], [ 37.077666699729257, -0.391461898165628 ], [ 37.073112025938904, -0.392788850372261 ], [ 37.072932708073139, -0.394223393298362 ], [ 37.07282511735368, -0.396231753394894 ], [ 37.072789253780535, -0.398419431357183 ], [ 37.073001352052366, -0.408692785326056 ], [ 37.069016463381153, -0.413504602500352 ], [ 37.063377469978505, -0.41342941787934 ], [ 37.057381718039998, -0.409187489730799 ], [ 37.052577511096381, -0.40399388326912 ], [ 37.050576253159257, -0.39360474666147 ], [ 37.050719707451869, -0.393371633435984 ], [ 37.0515266378478, -0.392690225546095 ], [ 37.051912171259175, -0.392439180534033 ], [ 37.052772897014833, -0.392403316960869 ], [ 37.053795008849676, -0.389103868230858 ], [ 37.054835052471098, -0.386154089339059 ], [ 37.056991349806886, -0.383347764739886 ], [ 37.057825177882677, -0.382321169958411 ], [ 37.057959666281995, -0.381886324133932 ], [ 37.05813898414776, -0.380532474247431 ], [ 37.058161398880976, -0.379846583410883 ], [ 37.059524214660769, -0.379039653014956 ], [ 37.061120143666038, -0.378196859045885 ], [ 37.070086036954137, -0.37339114024345 ], [ 37.073170304245245, -0.372620073420673 ], [ 37.074039995894189, -0.372575243954236 ], [ 37.074855892183407, -0.372485585021356 ], [ 37.076927013532959, -0.372395926088478 ], [ 37.077240819798035, -0.372162812862981 ], [ 37.076971842999392, -0.37157106390597 ], [ 37.077043570145698, -0.371015178522103 ], [ 37.083265900087639, -0.371714518198588 ], [ 37.084378331383107, -0.37076554518644 ], [ 37.085157391968558, -0.369899940395293 ], [ 37.085655125120368, -0.369034335519717 ], [ 37.08652615813606, -0.367432966278016 ], [ 37.087267347720825, -0.36753034684821 ], [ 37.08798148659082, -0.367541166911503 ], [ 37.088435938598998, -0.367497886658267 ], [ 37.088630703745359, -0.367411326151161 ], [ 37.088901210893091, -0.367227385070753 ], [ 37.089020910305962, -0.36676279857512 ], [ 37.089177804451637, -0.366546397287993 ], [ 37.089329288454365, -0.366474714360476 ], [ 37.089556514458458, -0.366532872207363 ], [ 37.089726933961522, -0.366612670182721 ], [ 37.090192206255608, -0.366826366452221 ], [ 37.090868474124932, -0.366900754392935 ], [ 37.09118632002351, -0.36689669686892 ], [ 37.091517691279471, -0.366814193880045 ], [ 37.091882875928903, -0.366562627384697 ], [ 37.092315687365264, -0.366140644860515 ], [ 37.092770139373449, -0.36574030244741 ], [ 37.093715712767207, -0.364942519542342 ], [ 37.095208478049507, -0.364255387531182 ], [ 37.098881154537708, -0.36013259436749 ], [ 37.100089583575759, -0.360037817491151 ], [ 37.100563477316172, -0.360132594367501 ], [ 37.101084760430624, -0.360416924990608 ], [ 37.104455329659302, -0.364859589819644 ], [ 37.105207635972214, -0.365463792067537 ], [ 37.107914753964316, -0.36872174466286 ], [ 37.114021298607391, -0.372887016269909 ], [ 37.108613747231416, -0.377425408508547 ], [ 37.108396545933729, -0.37773738177991 ], [ 37.107610672147544, -0.378752282091511 ], [ 37.10746850402542, -0.379628966311719 ], [ 37.107399843345924, -0.379960898550306 ], [ 37.107677786037854, -0.380023659803334 ], [ 37.108368159821033, -0.379942966763737 ], [ 37.1084834264528, -0.380072573758662 ], [ 37.108531693407848, -0.380337597385729 ], [ 37.108630860060934, -0.380504334100562 ], [ 37.108778293669062, -0.380620172237395 ], [ 37.109130203650366, -0.380827276781208 ], [ 37.109389967626591, -0.380967686638574 ], [ 37.109468949916668, -0.38106246329102 ], [ 37.109486501536686, -0.381183566789836 ], [ 37.109446132810646, -0.381287119055572 ], [ 37.109367150520583, -0.381308180533201 ], [ 37.108744727339136, -0.381162328250915 ], [ 37.108045387662663, -0.381673384168331 ], [ 37.10768921564712, -0.381908432623919 ], [ 37.107550557848995, -0.382023100659887 ], [ 37.10738381745886, -0.382101496152971 ], [ 37.107122298320633, -0.382205048407676 ], [ 37.10688125607242, -0.382354818898129 ], [ 37.106682571882871, -0.382569973497142 ], [ 37.106688578288242, -0.383019425418032 ], [ 37.106738502896292, -0.383297124840677 ], [ 37.106637742416439, -0.383457596932673 ] ] ] ] } }
]
}
